CCSDS_OMM_VERS = 2.0
CREATION_DATE  = 
ORIGINATOR     = 

OBJECT_NAME    = HULIANWANG DIGUI 14J
OBJECT_ID      = 2025-285J
CENTER_NAME    = EARTH
REF_FRAME      = TEME
TIME_SYSTEM    = UTC
MEAN_ELEMENT_THEORY = SGP/SGP4

EPOCH          = 2025-12-10T05:04:39.849312
MEAN_MOTION    = 14.06054815
ECCENTRICITY   = .0005386
INCLINATION    = 50.0075
RA_OF_ASC_NODE = 127.5783
ARG_OF_PERICENTER = 287.7981
MEAN_ANOMALY   = 72.2337

EPHEMERIS_TYPE = 0
CLASSIFICATION_TYPE = U
NORAD_CAT_ID   = 66923
ELEMENT_SET_NO = 999
REV_AT_EPOCH   = 55
BSTAR          = .19275E-3
MEAN_MOTION_DOT = .166E-5
MEAN_MOTION_DDOT = 0

CCSDS_OMM_VERS = 2.0
CREATION_DATE  = 
ORIGINATOR     = 

OBJECT_NAME    = CZ-8A R/B
OBJECT_ID      = 2025-285K
CENTER_NAME    = EARTH
REF_FRAME      = TEME
TIME_SYSTEM    = UTC
MEAN_ELEMENT_THEORY = SGP/SGP4

EPOCH          = 2025-12-10T03:30:48.313728
MEAN_MOTION    = 14.30500165
ECCENTRICITY   = .0119314
INCLINATION    = 50.0060
RA_OF_ASC_NODE = 127.1939
ARG_OF_PERICENTER = 97.5969
MEAN_ANOMALY   = 263.8518

EPHEMERIS_TYPE = 0
CLASSIFICATION_TYPE = U
NORAD_CAT_ID   = 66924
ELEMENT_SET_NO = 999
REV_AT_EPOCH   = 55
BSTAR          = .91739E-4
MEAN_MOTION_DOT = .93E-6
MEAN_MOTION_DDOT = 0

CCSDS_OMM_VERS = 2.0
CREATION_DATE  = 
ORIGINATOR     = 

OBJECT_NAME    = YAOGAN-47
OBJECT_ID      = 2025-289A
CENTER_NAME    = EARTH
REF_FRAME      = TEME
TIME_SYSTEM    = UTC
MEAN_ELEMENT_THEORY = SGP/SGP4

EPOCH          = 2025-12-09T22:00:55.912320
MEAN_MOTION    = 15.30229903
ECCENTRICITY   = .0009314
INCLINATION    = 97.5260
RA_OF_ASC_NODE = 49.0270
ARG_OF_PERICENTER = 269.0929
MEAN_ANOMALY   = 90.9244

EPHEMERIS_TYPE = 0
CLASSIFICATION_TYPE = U
NORAD_CAT_ID   = 66988
ELEMENT_SET_NO = 999
REV_AT_EPOCH   = 11
BSTAR          = .26831E-3
MEAN_MOTION_DOT = .7778E-4
MEAN_MOTION_DDOT = 0

CCSDS_OMM_VERS = 2.0
CREATION_DATE  = 
ORIGINATOR     = 

OBJECT_NAME    = CZ-4B R/B
OBJECT_ID      = 2025-289B
CENTER_NAME    = EARTH
REF_FRAME      = TEME
TIME_SYSTEM    = UTC
MEAN_ELEMENT_THEORY = SGP/SGP4

EPOCH          = 2025-12-09T21:36:26.229312
MEAN_MOTION    = 15.66138267
ECCENTRICITY   = .0152727
INCLINATION    = 97.5273
RA_OF_ASC_NODE = 49.0436
ARG_OF_PERICENTER = 13.5900
MEAN_ANOMALY   = 346.9400

EPHEMERIS_TYPE = 0
CLASSIFICATION_TYPE = U
NORAD_CAT_ID   = 66989
ELEMENT_SET_NO = 999
REV_AT_EPOCH   = 12
BSTAR          = .2489E-3
MEAN_MOTION_DOT = .48017E-3
MEAN_MOTION_DDOT = .2837E-5

CCSDS_OMM_VERS = 2.0
CREATION_DATE  = 
ORIGINATOR     = 

OBJECT_NAME    = TJS-22
OBJECT_ID      = 2025-290A
CENTER_NAME    = EARTH
REF_FRAME      = TEME
TIME_SYSTEM    = UTC
MEAN_ELEMENT_THEORY = SGP/SGP4

EPOCH          = 2025-12-09T10:19:42.645216
MEAN_MOTION    = 2.28111800
ECCENTRICITY   = .7302159
INCLINATION    = 28.4275
RA_OF_ASC_NODE = 302.9660
ARG_OF_PERICENTER = 179.5139
MEAN_ANOMALY   = 182.3589

EPHEMERIS_TYPE = 0
CLASSIFICATION_TYPE = U
NORAD_CAT_ID   = 66990
ELEMENT_SET_NO = 999
REV_AT_EPOCH   = 19
BSTAR          = .40278E-3
MEAN_MOTION_DOT = .4338E-4
MEAN_MOTION_DDOT = .73408E-6

CCSDS_OMM_VERS = 2.0
CREATION_DATE  = 
ORIGINATOR     = 

OBJECT_NAME    = CZ-3B R/B
OBJECT_ID      = 2025-290B
CENTER_NAME    = EARTH
REF_FRAME      = TEME
TIME_SYSTEM    = UTC
MEAN_ELEMENT_THEORY = SGP/SGP4

EPOCH          = 2025-12-09T10:36:26.069760
MEAN_MOTION    = 2.37490877
ECCENTRICITY   = .7238211
INCLINATION    = 28.4418
RA_OF_ASC_NODE = 302.9445
ARG_OF_PERICENTER = 178.8623
MEAN_ANOMALY   = 185.1180

EPHEMERIS_TYPE = 0
CLASSIFICATION_TYPE = U
NORAD_CAT_ID   = 66991
ELEMENT_SET_NO = 999
REV_AT_EPOCH   = 1
BSTAR          = .40065E-3
MEAN_MOTION_DOT = .10315E-3
MEAN_MOTION_DDOT = .69824E-6

